{
    "links": {
        "self": "http://www.neowsapp.com/rest/v1/neo/3826856?api_key=iIulBulltgU6a56xZRHN4H3l9WmuAYTsLGpBGhQ2"
    },
    "id": "3826856",
    "neo_reference_id": "3826856",
    "name": "(2018 QA)",
    "designation": "2018 QA",
    "nasa_jpl_url": "http://ssd.jpl.nasa.gov/sbdb.cgi?sstr=3826856",
    "absolute_magnitude_h": 23.2,
    "estimated_diameter": {
        "kilometers": {
            "estimated_diameter_min": 0.0608912622,
            "estimated_diameter_max": 0.1361570015
        },
        "meters": {
            "estimated_diameter_min": 60.8912622106,
            "estimated_diameter_max": 136.1570015386
        },
        "miles": {
            "estimated_diameter_min": 0.0378360645,
            "estimated_diameter_max": 0.0846040122
        },
        "feet": {
            "estimated_diameter_min": 199.7744887109,
            "estimated_diameter_max": 446.7093369279
        }
    },
    "is_potentially_hazardous_asteroid": false,
    "close_approach_data": [
        {
            "close_approach_date": "2018-09-03",
            "close_approach_date_full": "2018-Sep-03 16:51",
            "epoch_date_close_approach": 1535993460000,
            "relative_velocity": {
                "kilometers_per_second": "20.3723975068",
                "kilometers_per_hour": "73340.6310244098",
                "miles_per_hour": "45571.0159829173"
            },
            "miss_distance": {
                "astronomical": "0.0447758119",
                "lunar": "17.4177908291",
                "kilometers": "6698366.087760653",
                "miles": "4162171.6844688914"
            },
            "orbiting_body": "Earth"
        }
    ],
    "orbital_data": {
        "orbit_id": "1",
        "orbit_determination_date": "2018-08-17 19:42:35",
        "first_observation_date": "2018-08-11",
        "last_observation_date": "2018-08-17",
        "data_arc_in_days": 6,
        "observations_used": 11,
        "orbit_uncertainty": "9",
        "minimum_orbit_intersection": ".034708",
        "jupiter_tisserand_invariant": "3.481",
        "epoch_osculation": "2458345.5",
        "eccentricity": ".7081316596788548",
        "semi_major_axis": "1.988051796586501",
        "inclination": "8.40480115170136",
        "ascending_node_longitude": "146.1071486262625",
        "orbital_period": "1023.85856998797",
        "perihelion_distance": ".580249378342173",
        "perihelion_argument": "285.2634638372375",
        "aphelion_distance": "3.39585421483083",
        "perihelion_time": "2458413.469452853011",
        "mean_anomaly": "336.1011884411228",
        "mean_motion": ".3516110628484848",
        "equinox": "J2000",
        "orbit_class": {
            "orbit_class_type": "APO",
            "orbit_class_description": "Near-Earth asteroid orbits which cross the Earth’s orbit similar to that of 1862 Apollo",
            "orbit_class_range": "a (semi-major axis) > 1.0 AU; q (perihelion) < 1.017 AU"
        }
    },
    "is_sentry_object": false
}